ONEWEB-0624             
1 55165U 23004AB  23268.79301780 -.00144882  00000+0 -34246+0 0  9993
2 55165  87.9480 188.4763 0001564 116.5773 243.5523 13.24526087 37487
ONEWEB-0625             
1 55166U 23004AC  23268.78770725 -.00002297  00000+0 -59480-2 0  9995
2 55166  87.9246 203.6961 0002382  76.7778 283.3619 13.17679741 36495
ONEWEB-0626             
1 55167U 23004AD  23268.54716693  .00000669  00000+0  16891-2 0  9992
2 55167  87.9237 203.7300 0002122  56.9627 303.1708 13.17634642 36467
ONEWEB-0627             
1 55168U 23004AE  23268.84465691  .00001703  00000+0  43538-2 0  9993
2 55168  87.9237 203.6900 0001058  79.0602 281.0649 13.17642573 36504
ONEWEB-0628             
1 55169U 23004AF  23268.58335648  .00011684  00000+0  29388-1 0  9998
2 55169  87.9313 188.6097 0002526 104.8519 135.7327 13.19093390  5361
ONEWEB-0629             
1 55170U 23004AG  23268.83824156  .00000024  00000+0  28307-4 0  9994
2 55170  87.9237 203.6734 0001897  94.4034 265.7314 13.17636365 36503
ONEWEB-0631             
1 55171U 23004AH  23268.58335648 -.00675470  00000+0 -28340+0 0  9997
2 55171  86.8648 178.7121 0003821  96.6668 136.6210 14.28624865  5643
ONEWEB-0709             
1 55172U 23004AJ  23268.37825534  .00000231  00000+0  61543-3 0  9994
2 55172  87.8976 218.9059 0002183  50.1910 309.9410 13.11422272 35358
